{
  "type": "FeatureCollection",
  "features": [
    { "type":"Feature","id":1,"properties":{"id":1,"height":12},"geometry":{"type":"Polygon","coordinates":[[[116.3958,39.9168],[116.3961,39.9168],[116.3961,39.9170],[116.3958,39.9170],[116.3958,39.9168]]]}},
    { "type":"Feature","id":2,"properties":{"id":2,"height":10},"geometry":{"type":"Polygon","coordinates":[[[116.3979,39.9222],[116.3982,39.9222],[116.3982,39.9224],[116.3979,39.9224],[116.3979,39.9222]]]}},
    { "type":"Feature","id":3,"properties":{"id":3,"height":10},"geometry":{"type":"Polygon","coordinates":[[[116.3948,39.9200],[116.3951,39.9200],[116.3951,39.9202],[116.3948,39.9202],[116.3948,39.9200]]]}},
    { "type":"Feature","id":4,"properties":{"id":4,"height":10},"geometry":{"type":"Polygon","coordinates":[[[116.3990,39.9175],[116.3993,39.9175],[116.3993,39.9177],[116.3990,39.9177],[116.3990,39.9175]]]}},
    { "type":"Feature","id":5,"properties":{"id":5,"height":12},"geometry":{"type":"Polygon","coordinates":[[[116.3967,39.9183],[116.3971,39.9183],[116.3971,39.9186],[116.3967,39.9186],[116.3967,39.9183]]]}},
    { "type":"Feature","id":6,"properties":{"id":6,"height":18},"geometry":{"type":"Polygon","coordinates":[[[116.3967,39.9193],[116.3971,39.9193],[116.3971,39.9197],[116.3967,39.9197],[116.3967,39.9193]]]}},
    { "type":"Feature","id":7,"properties":{"id":7,"height":16},"geometry":{"type":"Polygon","coordinates":[[[116.39675,39.91985],[116.39705,39.91985],[116.39705,39.9201],[116.39675,39.9201],[116.39675,39.91985]]]}},
    { "type":"Feature","id":8,"properties":{"id":8,"height":16},"geometry":{"type":"Polygon","coordinates":[[[116.3967,39.9203],[116.3971,39.9203],[116.3971,39.9206],[116.3967,39.9206],[116.3967,39.9203]]]}},
    { "type":"Feature","id":9,"properties":{"id":9,"height":12},"geometry":{"type":"Polygon","coordinates":[[[116.3967,39.9208],[116.3971,39.9208],[116.3971,39.9211],[116.3967,39.9211],[116.3967,39.9208]]]}},
    { "type":"Feature","id":10,"properties":{"id":10,"height":14},"geometry":{"type":"Polygon","coordinates":[[[116.3962,39.9190],[116.39645,39.9190],[116.39645,39.9192],[116.3962,39.9192],[116.3962,39.9190]]]}},
    { "type":"Feature","id":11,"properties":{"id":11,"height":14},"geometry":{"type":"Polygon","coordinates":[[[116.39735,39.9190],[116.3976,39.9190],[116.3976,39.9192],[116.39735,39.9192],[116.39735,39.9190]]]}},
    { "type":"Feature","id":12,"properties":{"id":12,"height":13},"geometry":{"type":"Polygon","coordinates":[[[116.3956,39.9185],[116.3959,39.9185],[116.3959,39.9188],[116.3956,39.9188],[116.3956,39.9185]]]}},
    { "type":"Feature","id":13,"properties":{"id":13,"height":13},"geometry":{"type":"Polygon","coordinates":[[[116.3962,39.9172],[116.3965,39.9172],[116.3965,39.9175],[116.3962,39.9175],[116.3962,39.9172]]]}},
    { "type":"Feature","id":14,"properties":{"id":14,"height":17},"geometry":{"type":"Polygon","coordinates":[[[116.3970,39.9213],[116.3973,39.9213],[116.3973,39.9216],[116.3970,39.9216],[116.3970,39.9213]]]}},
    { "type":"Feature","id":15,"properties":{"id":15,"height":15},"geometry":{"type":"Polygon","coordinates":[[[116.3972,39.9213],[116.39745,39.9213],[116.39745,39.92155],[116.3972,39.92155],[116.3972,39.9213]]]}},
    { "type":"Feature","id":16,"properties":{"id":16,"height":15},"geometry":{"type":"Polygon","coordinates":[[[116.39745,39.9213],[116.3977,39.9213],[116.3977,39.92155],[116.39745,39.92155],[116.39745,39.9213]]]}},
    { "type":"Feature","id":17,"properties":{"id":17,"height":8},"geometry":{"type":"Polygon","coordinates":[[[116.3977,39.9214],[116.3980,39.9214],[116.3980,39.92175],[116.3977,39.92175],[116.3977,39.9214]]]}},
    { "type":"Feature","id":18,"properties":{"id":18,"height":8},"geometry":{"type":"Polygon","coordinates":[[[116.3957,39.9204],[116.3961,39.9204],[116.3961,39.9208],[116.3957,39.9208],[116.3957,39.9204]]]}},
    { "type":"Feature","id":19,"properties":{"id":19,"height":14},"geometry":{"type":"Polygon","coordinates":[[[116.3964,39.9209],[116.3967,39.9209],[116.3967,39.9212],[116.3964,39.9212],[116.3964,39.9209]]]}},
    { "type":"Feature","id":20,"properties":{"id":20,"height":10},"geometry":{"type":"Polygon","coordinates":[[[116.3971,39.9180],[116.39735,39.9180],[116.39735,39.9182],[116.3971,39.9182],[116.3971,39.9180]]]}},
    { "type":"Feature","id":21,"properties":{"id":21,"height":11},"geometry":{"type":"Polygon","coordinates":[[[116.3974,39.9174],[116.3979,39.9174],[116.3979,39.9178],[116.3974,39.9178],[116.3974,39.9174]]]}},
    { "type":"Feature","id":22,"properties":{"id":22,"height":7},"geometry":{"type":"Polygon","coordinates":[[[116.3978,39.9171],[116.3980,39.9171],[116.3980,39.91725],[116.3978,39.91725],[116.3978,39.9171]]]}},
    { "type":"Feature","id":23,"properties":{"id":23,"height":12},"geometry":{"type":"Polygon","coordinates":[[[116.39695,39.9210],[116.39725,39.9210],[116.39725,39.92125],[116.39695,39.92125],[116.39695,39.9210]]]}},
    { "type":"Feature","id":24,"properties":{"id":24,"height":10},"geometry":{"type":"Polygon","coordinates":[[[116.39755,39.9218],[116.3978,39.9218],[116.3978,39.9220],[116.39755,39.9220],[116.39755,39.9218]]]}},
    { "type":"Feature","id":25,"properties":{"id":25,"height":13},"geometry":{"type":"Polygon","coordinates":[[[116.3964,39.9219],[116.39675,39.9219],[116.39675,39.9222],[116.3964,39.9222],[116.3964,39.9219]]]}},
    { "type":"Feature","id":26,"properties":{"id":26,"height":12},"geometry":{"type":"Polygon","coordinates":[[[116.39655,39.9222],[116.3968,39.9222],[116.3968,39.9224],[116.39655,39.9224],[116.39655,39.9222]]]}},
    { "type":"Feature","id":27,"properties":{"id":27,"height":12},"geometry":{"type":"Polygon","coordinates":[[[116.3972,39.9221],[116.39745,39.9221],[116.39745,39.9223],[116.3972,39.9223],[116.3972,39.9221]]]}},
    { "type":"Feature","id":28,"properties":{"id":28,"height":12},"geometry":{"type":"Polygon","coordinates":[[[116.3972,39.9197],[116.39745,39.9197],[116.39745,39.91995],[116.3972,39.91995],[116.3972,39.9197]]]}},
    { "type":"Feature","id":29,"properties":{"id":29,"height":13},"geometry":{"type":"Polygon","coordinates":[[[116.3974,39.9198],[116.39765,39.9198],[116.39765,39.92005],[116.3974,39.92005],[116.3974,39.9198]]]}},
    { "type":"Feature","id":30,"properties":{"id":30,"height":13},"geometry":{"type":"Polygon","coordinates":[[[116.3976,39.9200],[116.39785,39.9200],[116.39785,39.92025],[116.3976,39.92025],[116.3976,39.9200]]]}},
    { "type":"Feature","id":31,"properties":{"id":31,"height":13},"geometry":{"type":"Polygon","coordinates":[[[116.3978,39.9202],[116.39805,39.9202],[116.39805,39.92045],[116.3978,39.92045],[116.3978,39.9202]]]}},
    { "type":"Feature","id":32,"properties":{"id":32,"height":12},"geometry":{"type":"Polygon","coordinates":[[[116.39765,39.9195],[116.3979,39.9195],[116.3979,39.91975],[116.39765,39.91975],[116.39765,39.9195]]]}},
    { "type":"Feature","id":33,"properties":{"id":33,"height":11},"geometry":{"type":"Polygon","coordinates":[[[116.3981,39.9197],[116.39835,39.9197],[116.39835,39.91995],[116.3981,39.91995],[116.3981,39.9197]]]}},
    { "type":"Feature","id":34,"properties":{"id":34,"height":11},"geometry":{"type":"Polygon","coordinates":[[[116.39825,39.91995],[116.3985,39.91995],[116.3985,39.9202],[116.39825,39.9202],[116.39825,39.91995]]]}},
    { "type":"Feature","id":35,"properties":{"id":35,"height":11},"geometry":{"type":"Polygon","coordinates":[[[116.3984,39.9202],[116.39865,39.9202],[116.39865,39.92045],[116.3984,39.92045],[116.3984,39.9202]]]}},
    { "type":"Feature","id":36,"properties":{"id":36,"height":11},"geometry":{"type":"Polygon","coordinates":[[[116.39855,39.92045],[116.3988,39.92045],[116.3988,39.9207],[116.39855,39.9207],[116.39855,39.92045]]]}},
    { "type":"Feature","id":37,"properties":{"id":37,"height":10},"geometry":{"type":"Polygon","coordinates":[[[116.39845,39.91955],[116.3987,39.91955],[116.3987,39.9198],[116.39845,39.9198],[116.39845,39.91955]]]}},
    { "type":"Feature","id":38,"properties":{"id":38,"height":10},"geometry":{"type":"Polygon","coordinates":[[[116.3983,39.9193],[116.39855,39.9193],[116.39855,39.9195],[116.3983,39.9195],[116.3983,39.9193]]]}},
    { "type":"Feature","id":39,"properties":{"id":39,"height":12},"geometry":{"type":"Polygon","coordinates":[[[116.3982,39.9191],[116.39845,39.9191],[116.39845,39.9193],[116.3982,39.9193],[116.3982,39.9191]]]}},
    { "type":"Feature","id":40,"properties":{"id":40,"height":12},"geometry":{"type":"Polygon","coordinates":[[[116.39875,39.91945],[116.3990,39.91945],[116.3990,39.9197],[116.39875,39.9197],[116.39875,39.91945]]]}}
  ]
}